{"type": "FeatureCollection", "features": [ {"type": "Feature", "properties": {"norad_id": 38755, "name": "SPOT 6", "group": "resource", "lat": -11.79402332204479, "lon": -133.39009150749547, "alt_km": 702.1483371834065, "timestamp": "2025-12-09T11:33:54.457282+00:00", "meta": {"OBJECT_NAME": "SPOT 6", "OBJECT_ID": "2012-047A", "EPOCH": "2025-12-09T04:06:11.062368", "MEAN_MOTION": 14.58597899, "ECCENTRICITY": 0.0001074, "INCLINATION": 98.1574, "RA_OF_ASC_NODE": 48.021, "ARG_OF_PERICENTER": 98.1837, "MEAN_ANOMALY": 261.9484, "EPHEMERIS_TYPE": 0, "CLASSIFICATION_TYPE": "U", "NORAD_CAT_ID": 38755, "ELEMENT_SET_NO": 999, "REV_AT_EPOCH": 70535, "BSTAR": 0.00012839, "MEAN_MOTION_DOT": 5.52e-06, "MEAN_MOTION_DDOT": 0}, "tle": {"line1": "1 38755U 12047A   25343.17096137  .00000552  00000+0  12839-3 0  9990", "line2": "2 38755  98.1574  48.0210 0001074  98.1837 261.9484 14.58597899705356"}}, "geometry": {"type": "Point", "coordinates": [-133.39009150749547, -11.79402332204479]}}, {"type": "Feature", "properties": {"norad_id": 39019, "name": "PLEIADES 1B", "group": "resource", "lat": 81.76259736663681, "lon": -40.330283593892304, "alt_km": 689.5499527146012, "timestamp": "2025-12-09T11:33:54.457292+00:00", "meta": {"OBJECT_NAME": "PLEIADES 1B", "OBJECT_ID": "2012-068A", "EPOCH": "2025-12-09T04:33:50.727744", "MEAN_MOTION": 14.58547353, "ECCENTRICITY": 0.0001223, "INCLINATION": 98.1796, "RA_OF_ASC_NODE": 55.8978, "ARG_OF_PERICENTER": 82.1426, "MEAN_ANOMALY": 277.9912, "EPHEMERIS_TYPE": 0, "CLASSIFICATION_TYPE": "U", "NORAD_CAT_ID": 39019, "ELEMENT_SET_NO": 999, "REV_AT_EPOCH": 69315, "BSTAR": 0.00012505, "MEAN_MOTION_DOT": 5.36e-06, "MEAN_MOTION_DDOT": 0}, "tle": {"line1": "1 39019U 12068A   25343.19017046  .00000536  00000+0  12505-3 0  9993", "line2": "2 39019  98.1796  55.8978 0001223  82.1426 277.9912 14.58547353693153"}}, "geometry": {"type": "Point", "coordinates": [-40.330283593892304, 81.76259736663681]}}, {"type": "Feature", "properties": {"norad_id": 39030, "name": "GOKTURK 2", "group": "resource", "lat": 68.23769956258329, "lon": 25.07547939943765, "alt_km": 637.0011638489314, "timestamp": "2025-12-09T11:33:54.457303+00:00", "meta": {"OBJECT_NAME": "GOKTURK 2", "OBJECT_ID": "2012-073A", "EPOCH": "2025-12-09T04:33:19.553760", "MEAN_MOTION": 14.75282788, "ECCENTRICITY": 9.12e-05, "INCLINATION": 97.6889, "RA_OF_ASC_NODE": 185.0175, "ARG_OF_PERICENTER": 98.0088, "MEAN_ANOMALY": 262.1226, "EPHEMERIS_TYPE": 0, "CLASSIFICATION_TYPE": "U", "NORAD_CAT_ID": 39030, "ELEMENT_SET_NO": 999, "REV_AT_EPOCH": 69649, "BSTAR": 0.00013609, "MEAN_MOTION_DOT": 8.74e-06, "MEAN_MOTION_DDOT": 0}, "tle": {"line1": "1 39030U 12073A   25343.18980965  .00000874  00000+0  13609-3 0  9991", "line2": "2 39030  97.6889 185.0175 0000912  98.0088 262.1226 14.75282788696493"}}, "geometry": {"type": "Point", "coordinates": [25.07547939943765, 68.23769956258329]}}, {"type": "Feature", "properties": {"norad_id": 39084, "name": "LANDSAT 8", "group": "resource", "lat": -78.70306309717296, "lon": 97.86586648303262, "alt_km": 710.634408033633, "timestamp": "2025-12-09T11:33:54.457313+00:00", "meta": {"OBJECT_NAME": "LANDSAT 8", "OBJECT_ID": "2013-008A", "EPOCH": "2025-12-09T03:42:05.981760", "MEAN_MOTION": 14.57108177, "ECCENTRICITY": 0.0001117, "INCLINATION": 98.2076, "RA_OF_ASC_NODE": 51.2805, "ARG_OF_PERICENTER": 86.9354, "MEAN_ANOMALY": 273.1972, "EPHEMERIS_TYPE": 0, "CLASSIFICATION_TYPE": "U", "NORAD_CAT_ID": 39084, "ELEMENT_SET_NO": 999, "REV_AT_EPOCH": 67022, "BSTAR": 0.00015388, "MEAN_MOTION_DOT": 6.48e-06, "MEAN_MOTION_DDOT": 0}, "tle": {"line1": "1 39084U 13008A   25343.15423590  .00000648  00000+0  15388-3 0  9997", "line2": "2 39084  98.2076  51.2805 0001117  86.9354 273.1972 14.57108177670223"}}, "geometry": {"type": "Point", "coordinates": [97.86586648303262, -78.70306309717296]}}, {"type": "Feature", "properties": {"norad_id": 39086, "name": "SARAL", "group": "resource", "lat": -8.7121436763928, "lon": -13.866278347107897, "alt_km": 785.9857874924037, "timestamp": "2025-12-09T11:33:54.457337+00:00", "meta": {"OBJECT_NAME": "SARAL", "OBJECT_ID": "2013-009A", "EPOCH": "2025-12-09T03:58:59.674080", "MEAN_MOTION": 14.32755021, "ECCENTRICITY": 0.0002795, "INCLINATION": 98.5504, "RA_OF_ASC_NODE": 167.1431, "ARG_OF_PERICENTER": 115.5628, "MEAN_ANOMALY": 244.5845, "EPHEMERIS_TYPE": 0, "CLASSIFICATION_TYPE": "U", "NORAD_CAT_ID": 39086, "ELEMENT_SET_NO": 999, "REV_AT_EPOCH": 66839, "BSTAR": 8.9772e-05, "MEAN_MOTION_DOT": 2.01e-06, "MEAN_MOTION_DDOT": 0}, "tle": {"line1": "1 39086U 13009A   25343.16596845  .00000201  00000+0  89772-4 0  9999", "line2": "2 39086  98.5504 167.1431 0002795 115.5628 244.5845 14.32755021668397"}}, "geometry": {"type": "Point", "coordinates": [-13.866278347107897, -8.7121436763928]}}, {"type": "Feature", "properties": {"norad_id": 39150, "name": "GAOFEN-1", "group": "resource", "lat": 5.95031523461597, "lon": -124.96859354449678, "alt_km": 630.7100657001702, "timestamp": "2025-12-09T11:33:54.457349+00:00", "meta": {"OBJECT_NAME": "GAOFEN-1", "OBJECT_ID": "2013-018A", "EPOCH": "2025-12-09T04:16:30.673920", "MEAN_MOTION": 14.76525386, "ECCENTRICITY": 0.0017984, "INCLINATION": 97.9329, "RA_OF_ASC_NODE": 53.9003, "ARG_OF_PERICENTER": 154.0792, "MEAN_ANOMALY": 206.1322, "EPHEMERIS_TYPE": 0, "CLASSIFICATION_TYPE": "U", "NORAD_CAT_ID": 39150, "ELEMENT_SET_NO": 999, "REV_AT_EPOCH": 68020, "BSTAR": 0.0002191, "MEAN_MOTION_DOT": 1.48e-05, "MEAN_MOTION_DDOT": 0}, "tle": {"line1": "1 39150U 13018A   25343.17813280  .00001480  00000+0  21910-3 0  9996", "line2": "2 39150  97.9329  53.9003 0017984 154.0792 206.1322 14.76525386680205"}}, "geometry": {"type": "Point", "coordinates": [-124.96859354449678, 5.95031523461597]}}, {"type": "Feature", "properties": {"norad_id": 39160, "name": "VNREDSAT 1", "group": "resource", "lat": 12.029822228380603, "lon": 37.16708513522874, "alt_km": 678.288697177245, "timestamp": "2025-12-09T11:33:54.457360+00:00", "meta": {"OBJECT_NAME": "VNREDSAT 1", "OBJECT_ID": "2013-021B", "EPOCH": "2025-12-09T04:57:09.441792", "MEAN_MOTION": 14.64915028, "ECCENTRICITY": 0.0001324, "INCLINATION": 97.9375, "RA_OF_ASC_NODE": 38.605, "ARG_OF_PERICENTER": 80.3023, "MEAN_ANOMALY": 279.833, "EPHEMERIS_TYPE": 0, "CLASSIFICATION_TYPE": "U", "NORAD_CAT_ID": 39160, "ELEMENT_SET_NO": 999, "REV_AT_EPOCH": 67247, "BSTAR": 0.00021287, "MEAN_MOTION_DOT": 1.093e-05, "MEAN_MOTION_DDOT": 0}, "tle": {"line1": "1 39160U 13021B   25343.20635928  .00001093  00000+0  21287-3 0  9993", "line2": "2 39160  97.9375  38.6050 0001324  80.3023 279.8330 14.64915028672477"}}, "geometry": {"type": "Point", "coordinates": [37.16708513522874, 12.029822228380603]}}, {"type": "Feature", "properties": {"norad_id": 39227, "name": "ARIRANG-5 (KOMPSAT-5)", "group": "resource", "lat": -12.780986273735053, "lon": 169.57189425743394, "alt_km": 557.0126140839657, "timestamp": "2025-12-09T11:33:54.457370+00:00", "meta": {"OBJECT_NAME": "ARIRANG-5 (KOMPSAT-5)", "OBJECT_ID": "2013-042A", "EPOCH": "2025-12-09T03:38:28.108608", "MEAN_MOTION": 15.04483704, "ECCENTRICITY": 0.0003953, "INCLINATION": 97.6148, "RA_OF_ASC_NODE": 167.5075, "ARG_OF_PERICENTER": 64.9508, "MEAN_ANOMALY": 295.2128, "EPHEMERIS_TYPE": 0, "CLASSIFICATION_TYPE": "U", "NORAD_CAT_ID": 39227, "ELEMENT_SET_NO": 999, "REV_AT_EPOCH": 67528, "BSTAR": 0.00019857, "MEAN_MOTION_DOT": 2.718e-05, "MEAN_MOTION_DDOT": 0}, "tle": {"line1": "1 39227U 13042A   25343.15171422  .00002718  00000+0  19857-3 0  9993", "line2": "2 39227  97.6148 167.5075 0003953  64.9508 295.2128 15.04483704675286"}}, "geometry": {"type": "Point", "coordinates": [169.57189425743394, -12.780986273735053]}}, {"type": "Feature", "properties": {"norad_id": 39418, "name": "SKYSAT-A", "group": "resource", "lat": -79.5070383860311, "lon": 78.43861416525812, "alt_km": 526.2163590502023, "timestamp": "2025-12-09T11:33:54.457380+00:00", "meta": {"OBJECT_NAME": "SKYSAT-A", "OBJECT_ID": "2013-066C", "EPOCH": "2025-12-09T02:23:48.583968", "MEAN_MOTION": 15.11559541, "ECCENTRICITY": 0.0020707, "INCLINATION": 97.4109, "RA_OF_ASC_NODE": 33.4188, "ARG_OF_PERICENTER": 250.2261, "MEAN_ANOMALY": 109.6736, "EPHEMERIS_TYPE": 0, "CLASSIFICATION_TYPE": "U", "NORAD_CAT_ID": 39418, "ELEMENT_SET_NO": 999, "REV_AT_EPOCH": 65975, "BSTAR": 0.00030622, "MEAN_MOTION_DOT": 5.156e-05, "MEAN_MOTION_DDOT": 0}, "tle": {"line1": "1 39418U 13066C   25343.09986787  .00005156  00000+0  30622-3 0  9994", "line2": "2 39418  97.4109  33.4188 0020707 250.2261 109.6736 15.11559541659759"}}, "geometry": {"type": "Point", "coordinates": [78.43861416525812, -79.5070383860311]}}, {"type": "Feature", "properties": {"norad_id": 39419, "name": "DUBAISAT-2", "group": "resource", "lat": 79.37065536766441, "lon": -161.84531996002195, "alt_km": 538.3368677103972, "timestamp": "2025-12-09T11:33:54.457390+00:00", "meta": {"OBJECT_NAME": "DUBAISAT-2", "OBJECT_ID": "2013-066D", "EPOCH": "2025-12-09T04:45:55.770624", "MEAN_MOTION": 15.08303597, "ECCENTRICITY": 0.0011002, "INCLINATION": 97.4445, "RA_OF_ASC_NODE": 333.7155, "ARG_OF_PERICENTER": 333.9703, "MEAN_ANOMALY": 26.0971, "EPHEMERIS_TYPE": 0, "CLASSIFICATION_TYPE": "U", "NORAD_CAT_ID": 39419, "ELEMENT_SET_NO": 999, "REV_AT_EPOCH": 65773, "BSTAR": 0.0005608, "MEAN_MOTION_DOT": 8.654e-05, "MEAN_MOTION_DDOT": 0}, "tle": {"line1": "1 39419U 13066D   25343.19856216  .00008654  00000+0  56080-3 0  9991", "line2": "2 39419  97.4445 333.7155 0011002 333.9703  26.0971 15.08303597657734"}}, "geometry": {"type": "Point", "coordinates": [-161.84531996002195, 79.37065536766441]}}]}